OBJECT_NAME,OBJECT_ID,EPOCH,MEAN_MOTION,ECCENTRICITY,INCLINATION,RA_OF_ASC_NODE,ARG_OF_PERICENTER,MEAN_ANOMALY,EPHEMERIS_TYPE,CLASSIFICATION_TYPE,NORAD_CAT_ID,ELEMENT_SET_NO,REV_AT_EPOCH,BSTAR,MEAN_MOTION_DOT,MEAN_MOTION_DDOT
STARLINK-33958,2025-093Q,2026-06-28T06:59:42.137952,15.27592578,.00011447,43.0009,173.5958,273.5002,86.5718,0,U,63850,999,6472,.61509914E-3,.16709E-3,0
STARLINK-33776,2025-093R,2026-06-28T10:46:39.630720,15.27596089,.00019993,43.0037,172.1933,312.8884,47.1799,0,U,63851,999,6490,.60967334E-3,.16561E-3,0
STARLINK-34032,2025-093T,2026-06-28T06:07:53.313024,15.27587633,.00009803,42.9969,173.3026,249.6984,110.3763,0,U,63853,999,6488,.44378348E-3,.11973E-3,0
STARLINK-34015,2025-093U,2026-06-28T07:03:23.757408,15.27597970,.00009853,43.0007,173.5942,273.6549,86.4190,0,U,63854,999,6472,.66267035E-3,.18028E-3,0
STARLINK-33969,2025-093V,2026-06-28T06:18:59.468256,15.27577378,.00015182,42.9988,173.3607,271.4954,88.5723,0,U,63855,999,6466,.55082979E-3,.14925E-3,0
STARLINK-34002,2025-093W,2026-06-28T06:31:56.803008,15.27576627,.00022773,43.0057,173.4318,273.8767,86.1824,0,U,63856,999,6466,.34216803E-3,.9164E-4,0
STARLINK-33999,2025-093X,2026-06-28T10:54:03.231648,15.27591668,.00017272,42.9974,172.1967,273.0626,87.0028,0,U,63857,999,6491,.52126544E-3,.14115E-3,0
STARLINK-33976,2025-093Y,2026-06-28T00:07:54.920064,15.27585434,.00013019,42.9971,174.8515,267.0344,93.0359,0,U,63858,999,6468,.70233409E-3,.19118E-3,0
STARLINK-33821,2025-093Z,2026-06-28T06:44:53.344608,15.27593448,.00010605,43.0000,173.4682,273.2805,86.7925,0,U,63859,999,6486,.68408308E-3,.18618E-3,0
STARLINK-33888,2025-093AA,2026-06-28T06:33:47.591136,15.27590178,.00011716,42.9987,173.4358,270.5316,89.5401,0,U,63860,999,6488,.53970561E-3,.14624E-3,0
STARLINK-33896,2025-093AB,2026-06-28T06:41:13.000416,15.27626026,.00003238,42.9982,173.4750,297.9798,62.1021,0,U,63861,999,6466,.122974E-2,.3378E-3,0
STARLINK-33878,2025-093AC,2026-06-28T06:43:02.307648,15.27594173,.00009638,43.0005,173.4575,266.2332,93.8410,0,U,63862,999,6487,.70546984E-3,.1921E-3,0
STARLINK-33954,2025-093AD,2026-06-28T10:02:27.422016,15.27596398,.00014998,43.0012,172.8025,277.5952,82.4729,0,U,63863,999,6468,.91168819E-3,.24923E-3,0
STARLINK-33863,2025-094A,2026-06-28T14:44:18.613248,14.98336407,.00030687,70.0023,314.9810,268.5720,91.5088,0,U,63864,999,6381,.21359782E-3,.2457E-4,0
STARLINK-33897,2025-094B,2026-06-28T14:02:14.230752,14.98336010,.00033006,70.0020,314.8748,267.0875,92.9907,0,U,63865,999,6403,.30828146E-3,.3588E-4,0
STARLINK-34022,2025-094C,2026-06-28T14:20:31.554816,14.98345585,.00031039,70.0025,314.9141,268.1492,91.9311,0,U,63866,999,6381,.52309328E-3,.6157E-4,0
STARLINK-33979,2025-094D,2026-06-28T14:00:01.000224,14.98346296,.00033945,70.0023,314.9050,267.9877,61.2561,0,U,63867,999,576,-.21873828E-2,-.26107E-3,0
STARLINK-34007,2025-094E,2026-06-28T14:38:19.670496,14.98323274,.00031426,70.0017,314.9641,269.2705,90.8094,0,U,63868,999,6381,.4183627E-3,.4902E-4,0
STARLINK-34006,2025-094F,2026-06-28T15:14:28.639680,14.98478767,.00011016,70.0019,314.6472,165.9166,194.2024,0,U,63869,999,6382,.44096471E-2,.53124E-3,0
STARLINK-33986,2025-094G,2026-06-28T15:26:35.254176,14.98335819,.00033291,70.0021,314.6729,268.9154,91.1624,0,U,63870,999,6382,.34139287E-3,.3983E-4,0
STARLINK-34013,2025-094H,2026-06-28T15:08:18.995424,14.98335336,.00031844,70.0016,314.6367,267.2571,92.8224,0,U,63871,999,6382,.26782413E-3,.3105E-4,0
STARLINK-34059,2025-094J,2026-06-28T14:32:17.341728,14.98335953,.00034468,70.0018,314.9505,269.9355,90.1409,0,U,63872,999,6381,.22841036E-3,.2634E-4,0
STARLINK-33987,2025-094K,2026-06-28T15:20:20.321376,14.98333548,.00031572,70.0018,314.6624,268.2032,91.8766,0,U,63873,999,6382,.20589441E-3,.2365E-4,0
STARLINK-34052,2025-094L,2026-06-28T14:26:16.719360,14.98337620,.00029091,70.0023,314.9326,264.7742,95.3085,0,U,63874,999,6381,.27387289E-3,.3177E-4,0
STARLINK-34023,2025-094M,2026-06-28T15:14:18.859200,14.98349131,.00036646,70.0020,314.6456,263.2554,96.8188,0,U,63875,999,6382,.62253037E-3,.7347E-4,0
STARLINK-33778,2025-094P,2026-06-28T15:44:37.190400,14.98336135,.00032772,70.0025,314.7169,266.8769,93.2015,0,U,63877,999,6382,.27910527E-3,.3239E-4,0
STARLINK-33901,2025-094Q,2026-06-28T14:32:31.595136,14.98339017,.00032055,70.0023,314.9411,267.7217,92.3575,0,U,63878,999,6381,.23077791E-3,.2662E-4,0
STARLINK-33812,2025-094R,2026-06-28T15:32:21.412320,14.98331053,.00030734,70.0017,314.6836,269.4931,90.5876,0,U,63879,999,6382,.39975808E-4,.384E-5,0
STARLINK-33779,2025-094S,2026-06-28T14:20:16.161792,14.98336442,.00030765,70.0026,314.9197,263.8072,96.2737,0,U,63880,999,6381,.2530693E-3,.2928E-4,0
STARLINK-33905,2025-094T,2026-06-28T14:56:17.691072,14.98336686,.00029387,70.0021,314.6048,267.3832,92.6991,0,U,63881,999,6382,.28373978E-3,.3295E-4,0
