STARLINK-33958          
1 63850U 25093Q   26179.29145993  .00016709  00000+0  61510-3 0  9996
2 63850  43.0009 173.5958 0001144 273.5002  86.5718 15.27592578 64722
STARLINK-33776          
1 63851U 25093R   26179.44906980  .00016561  00000+0  60967-3 0  9996
2 63851  43.0037 172.1933 0001999 312.8884  47.1799 15.27596089 64908
STARLINK-34032          
1 63853U 25093T   26179.25547816  .00011973  00000+0  44378-3 0  9996
2 63853  42.9969 173.3026 0000980 249.6984 110.3763 15.27587633 64881
STARLINK-34015          
1 63854U 25093U   26179.29402497  .00018028  00000+0  66267-3 0  9995
2 63854  43.0007 173.5942 0000985 273.6549  86.4190 15.27597970 64720
STARLINK-33969          
1 63855U 25093V   26179.26318829  .00014925  00000+0  55083-3 0  9994
2 63855  42.9988 173.3607 0001518 271.4954  88.5723 15.27577378 64660
STARLINK-34002          
1 63856U 25093W   26179.27218522  .00009164  00000+0  34217-3 0  9990
2 63856  43.0057 173.4318 0002277 273.8767  86.1824 15.27576627 64663
STARLINK-33999          
1 63857U 25093X   26179.45420407  .00014115  00000+0  52127-3 0  9990
2 63857  42.9974 172.1967 0001727 273.0626  87.0028 15.27591668 64917
STARLINK-33976          
1 63858U 25093Y   26179.00549676  .00019118  00000+0  70233-3 0  9998
2 63858  42.9971 174.8515 0001301 267.0344  93.0359 15.27585434 64683
STARLINK-33821          
1 63859U 25093Z   26179.28117297  .00018618  00000+0  68408-3 0  9994
2 63859  43.0000 173.4682 0001060 273.2805  86.7925 15.27593448 64864
STARLINK-33888          
1 63860U 25093AA  26179.27346749  .00014624  00000+0  53971-3 0  9993
2 63860  42.9987 173.4358 0001171 270.5316  89.5401 15.27590178 64887
STARLINK-33896          
1 63861U 25093AB  26179.27862269  .00033780  00000+0  12297-2 0  9993
2 63861  42.9982 173.4750 0000323 297.9798  62.1021 15.27626026 64667
STARLINK-33878          
1 63862U 25093AC  26179.27988782  .00019210  00000+0  70547-3 0  9998
2 63862  43.0005 173.4575 0000963 266.2332  93.8410 15.27594173 64877
STARLINK-33954          
1 63863U 25093AD  26179.41837294  .00024923  00000+0  91169-3 0  9996
2 63863  43.0012 172.8025 0001499 277.5952  82.4729 15.27596398 64684
STARLINK-33863          
1 63864U 25094A   26179.61410432  .00002457  00000+0  21360-3 0  9995
2 63864  70.0023 314.9810 0003068 268.5720  91.5088 14.98336407 63818
STARLINK-33897          
1 63865U 25094B   26179.58488693  .00003588  00000+0  30828-3 0  9991
2 63865  70.0020 314.8748 0003300 267.0875  92.9907 14.98336010 64039
STARLINK-34022          
1 63866U 25094C   26179.59758744  .00006157  00000+0  52309-3 0  9993
2 63866  70.0025 314.9141 0003103 268.1492  91.9311 14.98345585 63811
STARLINK-33979          
1 63867U 25094D   26179.58334491 -.00026107  00000+0 -21874-2 0  9993
2 63867  70.0023 314.9050 0003394 267.9877  61.2561 14.98346296  5762
STARLINK-34007          
1 63868U 25094E   26179.60994989  .00004902  00000+0  41836-3 0  9999
2 63868  70.0017 314.9641 0003142 269.2705  90.8094 14.98323274 63818
STARLINK-34006          
1 63869U 25094F   26179.63505370  .00053124  00000+0  44096-2 0  9995
2 63869  70.0019 314.6472 0001101 165.9166 194.2024 14.98478767 63827
STARLINK-33986          
1 63870U 25094G   26179.64346359  .00003983  00000+0  34139-3 0  9994
2 63870  70.0021 314.6729 0003329 268.9154  91.1624 14.98335819 63823
STARLINK-34013          
1 63871U 25094H   26179.63077541  .00003105  00000+0  26782-3 0  9999
2 63871  70.0016 314.6367 0003184 267.2571  92.8224 14.98335336 63828
STARLINK-34059          
1 63872U 25094J   26179.60575627  .00002634  00000+0  22841-3 0  9993
2 63872  70.0018 314.9505 0003446 269.9355  90.1409 14.98335953 63818
STARLINK-33987          
1 63873U 25094K   26179.63912409  .00002365  00000+0  20589-3 0  9998
2 63873  70.0018 314.6624 0003157 268.2032  91.8766 14.98333548 63824
STARLINK-34052          
1 63874U 25094L   26179.60158240  .00003177  00000+0  27387-3 0  9996
2 63874  70.0023 314.9326 0002909 264.7742  95.3085 14.98337620 63813
STARLINK-34023          
1 63875U 25094M   26179.63494050  .00007347  00000+0  62253-3 0  9996
2 63875  70.0020 314.6456 0003664 263.2554  96.8188 14.98349131 63827
STARLINK-33778          
1 63877U 25094P   26179.65598600  .00003239  00000+0  27911-3 0  9994
2 63877  70.0025 314.7169 0003277 266.8769  93.2015 14.98336135 63823
STARLINK-33901          
1 63878U 25094Q   26179.60592124  .00002662  00000+0  23078-3 0  9994
2 63878  70.0023 314.9411 0003205 267.7217  92.3575 14.98339017 63815
STARLINK-33812          
1 63879U 25094R   26179.64747005  .00000384  00000+0  39976-4 0  9993
2 63879  70.0017 314.6836 0003073 269.4931  90.5876 14.98331053 63829
STARLINK-33779          
1 63880U 25094S   26179.59740928  .00002928  00000+0  25307-3 0  9994
2 63880  70.0026 314.9197 0003076 263.8072  96.2737 14.98336442 63816
STARLINK-33905          
1 63881U 25094T   26179.62242698  .00003295  00000+0  28374-3 0  9995
2 63881  70.0021 314.6048 0002938 267.3832  92.6991 14.98336686 63826
